{
  "type": "FeatureCollection",
  "features": [
    {
      "type": "Feature",
      "properties": {
        "norad_id": 67074,
        "name": "ELECTRON KICK STAGE R/B",
        "group": "last-30-days",
        "lat": 62.617861324651265,
        "lon": 131.24316705263627,
        "alt_km": 510.7787304678395,
        "timestamp": "2025-12-23T22:42:31.704396+00:00",
        "meta_object_name": "ELECTRON KICK STAGE R/B",
        "meta_object_id": "2025-297C",
        "meta_epoch": "2025-12-23T03:56:14.663904",
        "meta_mean_motion": 15.58392058,
        "meta_eccentricity": 0.01944752,
        "meta_inclination": 97.4823,
        "meta_ra_of_asc_node": 145.1199,
        "meta_arg_of_pericenter": 231.6655,
        "meta_mean_anomaly": 126.6983,
        "meta_ephemeris_type": 0,
        "meta_classification_type": "U",
        "meta_norad_cat_id": 67074,
        "meta_element_set_no": 999,
        "meta_rev_at_epoch": 140,
        "meta_bstar": 0.001793479,
        "meta_mean_motion_dot": 0.00342466,
        "meta_mean_motion_ddot": 3.3526881e-05,
        "tle_line1": "1 67074U 25297C   25357.16405861  .00342466  33527-4  17935-2 0  9998",
        "tle_line2": "2 67074  97.4823 145.1199 0194475 231.6655 126.6983 15.58392058  1403"
      },
      "geometry": {
        "type": "Point",
        "coordinates": [
          131.24316705263627,
          62.617861324651265
        ]
      }
    },
    {
      "type": "Feature",
      "properties": {
        "norad_id": 67075,
        "name": "STARLINK-36230",
        "group": "last-30-days",
        "lat": 58.24386283690034,
        "lon": -105.79296371667884,
        "alt_km": 310.4443137720191,
        "timestamp": "2025-12-23T22:42:31.704406+00:00",
        "meta_object_name": "STARLINK-36230",
        "meta_object_id": "2025-298A",
        "meta_epoch": "2025-12-23T06:00:00.999648",
        "meta_mean_motion": 15.88266905,
        "meta_eccentricity": 0.00042288,
        "meta_inclination": 69.9966,
        "meta_ra_of_asc_node": 220.1575,
        "meta_arg_of_pericenter": 276.4828,
        "meta_mean_anomaly": 132.3054,
        "meta_ephemeris_type": 0,
        "meta_classification_type": "U",
        "meta_norad_cat_id": 67075,
        "meta_element_set_no": 999,
        "meta_rev_at_epoch": 266,
        "meta_bstar": -0.0073046279,
        "meta_mean_motion_dot": -0.01748336,
        "meta_mean_motion_ddot": 0,
        "tle_line1": "1 67075U 25298A   25357.25001157 -.01748336  00000+0 -73046-2 0  9999",
        "tle_line2": "2 67075  69.9966 220.1575 0004228 276.4828 132.3054 15.88266905  2669"
      },
      "geometry": {
        "type": "Point",
        "coordinates": [
          -105.79296371667884,
          58.24386283690034
        ]
      }
    },
    {
      "type": "Feature",
      "properties": {
        "norad_id": 67076,
        "name": "STARLINK-36240",
        "group": "last-30-days",
        "lat": 59.693783959865414,
        "lon": -103.2950918531533,
        "alt_km": 310.3467988480388,
        "timestamp": "2025-12-23T22:42:31.704417+00:00",
        "meta_object_name": "STARLINK-36240",
        "meta_object_id": "2025-298B",
        "meta_epoch": "2025-12-23T06:00:00.999648",
        "meta_mean_motion": 15.88266022,
        "meta_eccentricity": 0.00041695,
        "meta_inclination": 69.9966,
        "meta_ra_of_asc_node": 220.155,
        "meta_arg_of_pericenter": 273.8595,
        "meta_mean_anomaly": 136.8715,
        "meta_ephemeris_type": 0,
        "meta_classification_type": "U",
        "meta_norad_cat_id": 67076,
        "meta_element_set_no": 999,
        "meta_rev_at_epoch": 266,
        "meta_bstar": -0.0073064158,
        "meta_mean_motion_dot": -0.01748555,
        "meta_mean_motion_ddot": 0,
        "tle_line1": "1 67076U 25298B   25357.25001157 -.01748555  00000+0 -73064-2 0  9993",
        "tle_line2": "2 67076  69.9966 220.1550 0004169 273.8595 136.8715 15.88266022  2662"
      },
      "geometry": {
        "type": "Point",
        "coordinates": [
          -103.2950918531533,
          59.693783959865414
        ]
      }
    },
    {
      "type": "Feature",
      "properties": {
        "norad_id": 67077,
        "name": "STARLINK-36243",
        "group": "last-30-days",
        "lat": 61.33874753444476,
        "lon": -100.057073769717,
        "alt_km": 310.29982072750045,
        "timestamp": "2025-12-23T22:42:31.704427+00:00",
        "meta_object_name": "STARLINK-36243",
        "meta_object_id": "2025-298C",
        "meta_epoch": "2025-12-23T06:00:00.999648",
        "meta_mean_motion": 15.88255127,
        "meta_eccentricity": 0.0004305,
        "meta_inclination": 69.9964,
        "meta_ra_of_asc_node": 220.1519,
        "meta_arg_of_pericenter": 274.2424,
        "meta_mean_anomaly": 138.7958,
        "meta_ephemeris_type": 0,
        "meta_classification_type": "U",
        "meta_norad_cat_id": 67077,
        "meta_element_set_no": 999,
        "meta_rev_at_epoch": 266,
        "meta_bstar": -0.0072931119,
        "meta_mean_motion_dot": -0.0174517,
        "meta_mean_motion_ddot": 0,
        "tle_line1": "1 67077U 25298C   25357.25001157 -.01745170  00000+0 -72931-2 0  9996",
        "tle_line2": "2 67077  69.9964 220.1519 0004305 274.2424 138.7958 15.88255127  2668"
      },
      "geometry": {
        "type": "Point",
        "coordinates": [
          -100.057073769717,
          61.33874753444476
        ]
      }
    },
    {
      "type": "Feature",
      "properties": {
        "norad_id": 67078,
        "name": "STARLINK-36236",
        "group": "last-30-days",
        "lat": 62.56382234174827,
        "lon": -97.28953551866731,
        "alt_km": 310.2356180730512,
        "timestamp": "2025-12-23T22:42:31.704439+00:00",
        "meta_object_name": "STARLINK-36236",
        "meta_object_id": "2025-298D",
        "meta_epoch": "2025-12-23T06:00:00.999648",
        "meta_mean_motion": 15.88260631,
        "meta_eccentricity": 0.00043434,
        "meta_inclination": 69.9965,
        "meta_ra_of_asc_node": 220.1501,
        "meta_arg_of_pericenter": 273.2512,
        "meta_mean_anomaly": 141.5629,
        "meta_ephemeris_type": 0,
        "meta_classification_type": "U",
        "meta_norad_cat_id": 67078,
        "meta_element_set_no": 999,
        "meta_rev_at_epoch": 266,
        "meta_bstar": -0.0072986374,
        "meta_mean_motion_dot": -0.01746785,
        "meta_mean_motion_ddot": 0,
        "tle_line1": "1 67078U 25298D   25357.25001157 -.01746785  00000+0 -72986-2 0  9990",
        "tle_line2": "2 67078  69.9965 220.1501 0004343 273.2512 141.5629 15.88260631  2663"
      },
      "geometry": {
        "type": "Point",
        "coordinates": [
          -97.28953551866731,
          62.56382234174827
        ]
      }
    },
    {
      "type": "Feature",
      "properties": {
        "norad_id": 67079,
        "name": "STARLINK-36159",
        "group": "last-30-days",
        "lat": 64.05351870134369,
        "lon": -93.37963356092632,
        "alt_km": 310.16313197655563,
        "timestamp": "2025-12-23T22:42:31.704449+00:00",
        "meta_object_name": "STARLINK-36159",
        "meta_object_id": "2025-298E",
        "meta_epoch": "2025-12-23T06:00:00.999648",
        "meta_mean_motion": 15.88248521,
        "meta_eccentricity": 0.00043823,
        "meta_inclination": 69.9966,
        "meta_ra_of_asc_node": 220.1475,
        "meta_arg_of_pericenter": 274.0376,
        "meta_mean_anomaly": 143.1066,
        "meta_ephemeris_type": 0,
        "meta_classification_type": "U",
        "meta_norad_cat_id": 67079,
        "meta_element_set_no": 999,
        "meta_rev_at_epoch": 266,
        "meta_bstar": -0.0073026783,
        "meta_mean_motion_dot": -0.01746757,
        "meta_mean_motion_ddot": 0,
        "tle_line1": "1 67079U 25298E   25357.25001157 -.01746757  00000+0 -73027-2 0  9997",
        "tle_line2": "2 67079  69.9966 220.1475 0004382 274.0376 143.1066 15.88248521  2662"
      },
      "geometry": {
        "type": "Point",
        "coordinates": [
          -93.37963356092632,
          64.05351870134369
        ]
      }
    },
    {
      "type": "Feature",
      "properties": {
        "norad_id": 67080,
        "name": "STARLINK-36158",
        "group": "last-30-days",
        "lat": 65.34959989580311,
        "lon": -89.31163053315103,
        "alt_km": 310.00410586489943,
        "timestamp": "2025-12-23T22:42:31.704460+00:00",
        "meta_object_name": "STARLINK-36158",
        "meta_object_id": "2025-298F",
        "meta_epoch": "2025-12-23T06:00:00.999648",
        "meta_mean_motion": 15.88247121,
        "meta_eccentricity": 0.00042111,
        "meta_inclination": 69.9963,
        "meta_ra_of_asc_node": 220.1448,
        "meta_arg_of_pericenter": 273.4584,
        "meta_mean_anomaly": 145.8769,
        "meta_ephemeris_type": 0,
        "meta_classification_type": "U",
        "meta_norad_cat_id": 67080,
        "meta_element_set_no": 999,
        "meta_rev_at_epoch": 260,
        "meta_bstar": -0.0073496307,
        "meta_mean_motion_dot": -0.01756099,
        "meta_mean_motion_ddot": 0,
        "tle_line1": "1 67080U 25298F   25357.25001157 -.01756099  00000+0 -73496-2 0  9999",
        "tle_line2": "2 67080  69.9963 220.1448 0004211 273.4584 145.8769 15.88247121  2604"
      },
      "geometry": {
        "type": "Point",
        "coordinates": [
          -89.31163053315103,
          65.34959989580311
        ]
      }
    }
  ]
}